STARLINK-5810           
1 55776U 23028AM  23072.25001157 -.00912216  00000+0 -40246-2 0  9990
2 55776  70.0000 128.7997 0003555 271.1916 231.0549 15.86343186  2154
STARLINK-5814           
1 55777U 23028AN  23072.25001157 -.00912321  00000+0 -40330-2 0  9992
2 55777  70.0001 128.8013 0003567 273.7454 227.3311 15.86303058  2153
STARLINK-5816           
1 55778U 23028AP  23072.25001157 -.00909157  00000+0 -40162-2 0  9999
2 55778  70.0000 128.8010 0003507 272.5329 228.8442 15.86310797  2151
STARLINK-5817           
1 55779U 23028AQ  23071.91667824 -.00843283  21392-3 -29480-2 0  9999
2 55779  69.9995 129.7342 0009372 260.8635 158.8463 15.88980010  2109
STARLINK-5819           
1 55780U 23028AR  23072.25001157 -.00859363  00000+0 -37792-2 0  9990
2 55780  70.0000 128.8002 0003615 275.7025 225.9716 15.86285615  2155
STARLINK-5820           
1 55781U 23028AS  23072.25001157 -.00867330  00000+0 -38147-2 0  9999
2 55781  70.0000 128.7997 0003630 273.0216 228.9420 15.86301379  2159
STARLINK-5826           
1 55782U 23028AT  23072.25001157 -.00856395  00000+0 -37597-2 0  9997
2 55782  70.0000 128.7992 0003613 275.6422 226.9052 15.86313794  2156
STARLINK-5825           
1 55783U 23028AU  23072.58334491 -.00905616  00000+0 -41176-2 0  9993
2 55783  70.0001 127.8394 0003845 258.6639 346.8169 15.85707325  2205
STARLINK-5797           
1 55784U 23028AV  23072.25001157 -.00865722  00000+0 -37949-2 0  9994
2 55784  70.0000 128.7974 0003439 272.8344 231.2438 15.86368509  2157
STARLINK-5818           
1 55785U 23028AW  23072.25001157 -.00897416  00000+0 -39488-2 0  9990
2 55785  69.9999 128.7987 0003596 272.7854 230.3678 15.86362397  2149
STARLINK-5823           
1 55786U 23028AX  23071.91667824 -.00925008  00000+0 -39370-2 0  9991
2 55786  70.0000 129.7581 0005640 269.0042 131.8675 15.87070693  1302
STARLINK-5811           
1 55787U 23028AY  23072.25001157 -.00857384  00000+0 -37592-2 0  9996
2 55787  69.9999 128.7983 0003509 273.4853 229.9691 15.86343705  2149
STARLINK-5804           
1 55788U 23028AZ  23071.91667824 -.00926200  00000+0 -39480-2 0  9990
2 55788  69.9998 129.7588 0005064 274.0085 126.2741 15.87052690  2093
STARLINK-5815           
1 55789U 23028BA  23072.25001157 -.00878619  00000+0 -38482-2 0  9991
2 55789  69.9999 128.7956 0003565 273.8042 231.5526 15.86413860  2143
STARLINK-5813           
1 55790U 23028BB  23072.58334491 -.00909975  00000+0 -41263-2 0  9990
2 55790  70.0001 127.8367 0003728 259.3396 348.4450 15.85774438  2201
STARLINK-5807           
1 55791U 23028BC  23072.25001157 -.00928128  00000+0 -40752-2 0  9998
2 55791  69.9997 128.7971 0006648 270.5630 234.1469 15.86427590  2143
FALCON 9 DEB            
1 55792U 23028BD  23072.07915478  .03674289  41761-5  88717-3 0  9995
2 55792  69.9729 128.7006 0033472 146.5226 213.8124 16.27422909  2141
FALCON 9 DEB            
1 55793U 23028BE  23072.13425659  .04561736  42202-5  85210-3 0  9999
2 55793  69.9763 128.4915 0024406 150.9817 209.2772 16.30899999  2158
FALCON 9 DEB            
1 55795U 23028BG  23070.71192441  .03660901  41337-5  11864-2 0  9997
2 55795  69.9812 132.7911 0036129 148.4096 211.9307 16.23954564  1925
2023-030A               
1 55836U 23030A   23072.55873727 -.00000044  00000+0  00000+0 0  9990
2 55836  98.9980  80.8456 0004884 219.1953 140.8836 14.02945600   514
2023-030B               
1 55837U 23030B   23072.55662781 -.00000044  00000+0  00000+0 0  9997
2 55837  98.9992  80.8500 0001860 263.4113  96.6841 14.03772519   511
2023-030C               
1 55838U 23030C   23072.58299382 -.00000046  00000+0  00000+0 0  9996
2 55838  99.0058  81.0449 0088282  33.8041 326.8721 14.21252154   528
2023-030D               
1 55839U 23030D   23072.41594364 -.00000044  00000+0  00000+0 0  9995
2 55839  98.9975  80.7055 0004996 217.7072 142.3753 14.02948632   484
